#dP2022 11 21 12  0  0.00000000      96 __u+U ITR00 EXT  IAC
## 2237 129600.00000000   900.00000000 59904 0.5000000000000
+  118   C06C07C08C09C10C11C12C13C14C16C19C20C21C22C23C24C25
+        C26C27C28C29C30C32C33C34C35C36C37C38C39C40C41C42C43
+        C44C45C46E01E02E03E04E05E07E08E09E10E11E12E13E14E15
+        E18E19E21E24E25E26E27E30E31E33E34E36G01G02G03G04G05
+        G06G07G08G09G10G11G12G13G14G15G16G17G18G19G20G21G22
+        G23G24G25G26G27G29G30G31G32J02J03J04R01R02R03R04R05
+        R07R08R09R11R12R13R14R15R17R18R19R20R21R22R24R25  0
++        11  8 10 11  9  8  7  9  9 10  9  7  8  8  9 14  8
++         7 10 10  8  8 10  9  9  9  9  8 11 11  9  9  8  7
++         9  8  9  8  7  7  6  7  8  8  8  7  6  5  7  7  8
++         7  9  6  7  7  8  8  8  7  7  8  7  7  8  6  7  7
++         7  8  6  5  7  7  8  6  7  7  8  7  7  9  7  7  6
++         7  7  8  7  6  8  7  7  8  8  9 10  8  7  8  7  9
++         8  8 10  8  9 10  7  8  7  9  9  9  7  8  8  7  0
%c M  cc GPS ccc cccc cccc cccc cccc ccccc ccccc ccccc ccccc
%c cc cc ccc ccc cccc cccc cccc cccc ccccc ccccc ccccc ccccc
%f  0.0000000  0.000000000  0.00000000000  0.000000000000000
%f  0.0000000  0.000000000  0.00000000000  0.000000000000000
%i    0    0    0    0      0      0      0      0         0
%i    0    0    0    0      0      0      0      0         0
/* IAC                                ULTRA-RAPID PREDICTION
/* S/V CLOCKS ARE ALIGNED TO GNSS TIME                      
/* G:C1WC2W R:C1PC2P E:C1XC5X C:C2IC6I J:C1CC2S             
/* PCV:IGS14_2233 OL/AL:FES2004  NONE     YN ORB:CoN CLK:CoN
*  2022 11 22  2 45  0.00000000
PC06  -2003.926008  37997.637224  18427.008038     -4.371831
PC07 -10671.873131  25712.899343 -31644.797341    180.559487
PC08 -19046.856950  34708.871292  14234.200421    514.870990
PC09   2829.025279  40990.217597  10970.756336   -801.165367
PC10  -2105.659992  26842.480291 -32149.841946     64.336426
PC11  10752.982334 -12484.991880  22600.964871   -278.628493
PC12  17905.039669   6888.581626  20304.179784    312.105671
PC13 -11153.340395  34597.300067  21249.548112    139.400406
PC14  20521.290907  -9692.953916 -16195.029368    197.561728
PC16  -5589.159258  35112.141238  23059.709607    113.440054
PC19 -11318.809609  13871.888342  21425.299521   -911.394961
PC20 -25613.536706   4951.809930   9941.847279    830.063084
PC21  25472.907811   7668.619844   8416.052134   -874.001391
PC22  10166.302275  15213.350307  21056.732458   -780.623082
PC23   -375.368288 -21732.799150  17508.979008   -875.715542
PC24  20740.393517 -11193.005847 -14981.300379   -775.026085
PC25  13370.448075 -24341.220442   2862.972385     28.258659
PC26  15561.924901   5654.796668 -22481.219206    -39.307491
PC27 -18251.085329 -15324.849064 -14526.707795     54.999869
PC28 -10808.124009 -25688.249856   1506.996880     38.725395
PC29  -3097.154316  21205.102457 -17875.738968     43.732445
PC30 -15810.717742   3789.131389 -22681.333539      1.036506
PC32 -25499.351254  -7517.029674  -8483.689296   -709.294767
PC33  11340.480820 -13927.125317 -21358.826076   -907.137937
PC34  15316.240297  -5019.813591  22774.719075     44.612204
PC35  10700.127162  25612.548091  -3034.206948     99.176478
PC36 -14328.066067  23831.641080  -2242.581256   -823.024734
PC37 -14581.301430  -7418.265758  22616.937692   -918.228113
PC38 -22784.475736  34777.426551   6441.368537     39.802621
PC39  -6828.578731  32301.409527  26355.298997     -0.906030
PC40 -16648.088512  18855.179165 -33882.173139     -8.599428
PC41  -9611.149679 -15294.400060 -21224.713455   -301.002933
PC42  26129.402630  -4217.662372  -8786.840578   -708.995765
PC43   3849.447696 -20724.867805  18272.138142     26.241631
PC44  18846.991291  14842.296943  14273.212650    121.475476
PC45    641.476111  21458.195084 -17815.101807    -25.392964
PC46 -20632.663495  12839.466776  13676.193843    -14.593574
PE01  12983.379660  11891.874482 -23793.060156   -570.202666
PE02 -13190.367892 -11759.020209  23743.745951      4.051003
PE03 -21311.002696 -19756.692736  -5660.722486   -622.367462
PE04  25852.318754   7447.235067 -12350.946563  -1163.744238
PE05  -4121.990413 -20714.206740 -20743.163601   -122.323307
PE07 -15189.734210   9604.527061  23516.992835     -1.209224
PE08 -25831.600069  -7463.559875  12376.740283   -636.315598
PE09  15256.768706  -9374.586963 -23573.525488   -737.636318
PE10  15702.795834  -9824.474125  23089.087856   -492.517353
PE11  12832.994841 -20488.520651  17071.106793   1215.238231
PE12  16028.605501   1515.909933  24841.195048   -290.003254
PE13 -13085.137118  19737.260153 -17750.111684    430.550330
PE14  12846.334954  21162.359215  -8150.201810     63.451441
PE15 -15920.397711  -1811.691828 -24878.619933    705.864633
PE18 -24860.703369 -18180.999846  -4859.931560   -715.283994
PE19  19567.428588  20672.178026   8132.317288  -3934.871224
PE21  -6553.314163  19236.322952 -21516.201088   -496.030859
PE24  24437.809685 -15660.125578   5878.892602   -960.622588
PE25   6900.167260 -19291.458940  21375.846815   -593.235030
PE26  -2119.488558  29513.298435    576.918629  -1872.916798
PE27 -23832.861637  16170.431305  -6790.699792   -445.333437
PE30 -26706.861186   2907.225662  12400.232887  -1017.839591
PE31  26918.946680  -3634.576245 -11766.332805   -508.781800
PE33   9348.130709  22139.687592  17288.753591   -455.574077
PE34  -9472.039867 -22001.562898 -17400.521434    -15.829140
PE36   2620.034007 -29482.863499    307.060178   -464.378551
PG01  13249.555545 -16749.921362  15252.820096    248.284925
PG02 -10698.743282  20280.626991 -12942.619162   -636.740062
PG03  22790.480485 -12453.377053  -5415.353376   -373.815015
PG04  13583.569901  -7942.871849 -21409.518405    -82.193497
PG05 -25033.198621   4684.194932  -7920.270851   -105.221101
PG06  -7168.360532 -19929.382380 -15909.684599    523.868139
PG07   5805.167809 -25525.630184  -2013.537460    284.419522
PG08  20832.189505   1611.469787  16567.650643    -95.000123
PG09   2317.078239 -16724.144504 -20574.167515   -265.079778
PG10   4791.645686  14166.037894  22103.187015    -12.914714
PG11 -13267.970453  -8568.737740 -21351.971690    -43.637401
PG12 -23817.442456  10637.356693  -4965.719158   -307.089915
PG13 -21127.872121 -10532.902680  12179.126261    428.868829
PG14  -1922.946737 -15515.892811  21468.785014    -79.668060
PG15 -20968.671441   1022.642781  15984.059924    -10.403277
PG16  24073.210958   1822.071043 -11869.921122   -526.837440
PG17  -9451.038781 -21156.186871  13353.641028    679.936627
PG18  -5075.599818  25989.211919   -338.782310    -30.885223
PG19 -17535.373610 -19994.085115   2181.012405    240.559981
PG20 -19051.572289  -3979.774896 -17953.857756    468.476692
PG21  15207.089872  -7613.690196  20813.666793    155.532378
PG22  18884.367846  18814.216149    470.889698    369.453534
PG23  -7471.192208  17013.185815  18918.124604     -0.858047
PG24 -14190.989700  13131.814174  17689.539104     48.789699
PG25 -15959.244048  16413.796235 -13518.452613    394.936672
PG26  16637.941178   8094.605302 -19263.191355    236.480152
PG27  22689.135886  11894.738024   7541.850763    172.359707
PG29  -5205.455087  14926.963246 -21370.555580   -568.885189
PG30  -2301.794447 -24773.702252   9015.871573   -536.454067
PG31   8616.491920  18543.518618 -16852.476073   -200.947610
PG32  13400.822634  20491.944586  10689.707832   -304.221818
PJ02 -35541.595067  20177.407120  -5806.127792     -0.174172
PJ03 -19365.094616  27133.832046 -21203.952805     -5.111128
PJ04 -28611.544501  28388.929396  18649.185666    113.456242
PR01  16839.106388  -5102.748332 -18471.364669     18.282157
PR02  -2329.403715 -11618.205730 -22543.268706    -23.369040
PR03 -19021.738422 -11224.947245 -12665.796708     67.703348
PR04 -24730.965327  -4736.824595   4035.776184    165.795185
PR05 -16958.055472   4335.694943  18545.463154    103.304131
PR07  19586.636169  11107.364676  12072.013948     44.748440
PR08  24773.469588   4592.529730  -4051.234638    -68.211414
PR09  -7922.545653  19127.606609 -14935.451934     88.904341
PR11  16954.137826  -5097.846093 -18348.917082     19.365850
PR12  18412.492962 -17577.038006  -1782.091824     23.050276
PR13   9368.638407 -19312.828178  13769.391192    -29.160044
PR14  -6535.895224  -9186.186089  22891.289882     24.088986
PR15 -17505.256702   5713.999614  17669.916729     92.755492
PR17 -10306.112172 -21104.094192  -9995.171126    580.261001
PR18 -11747.017644  -6855.020961 -21548.315113     53.173664
PR19  -8005.524645   9440.949552 -22295.630175   -211.831967
PR20   1654.517416  24081.050740  -8288.691020    -82.594909
PR21  10582.252922  20123.219395  11538.717008   -351.605761
PR22  11835.317330   6432.694010  21693.659646     16.471123
PR24  -2518.716382 -24223.516627   7644.227300    127.988444
PR25   9263.971008  21739.545337   9583.157246     46.935793
EOF
